{
  "type": "FeatureCollection",
  "name": "YOKOZEatlas2026_morigawa_water_quality_v0.1.0",
  "crs": {
    "type": "name",
    "properties": {
      "name": "urn:ogc:def:crs:OGC:1.3:CRS84"
    }
  },
  "metadata": {
    "title": "2026年9月 荒川流域圏構想フィールドワーク 水質・水環境データ",
    "created": "2026-09-23",
    "license": "データライセンス確認中",
    "feature_count": 20,
    "source_repository": "https://github.com/mapconcierge/YOKOZEatlas2026_ArakawaRiverBasinFieldwork202609",
    "rules": "YOKOZE Atlas データ整備ルール v0.5.1"
  },
  "features": [
    {
      "type": "Feature",
      "id": "YKW-20260921-001",
      "geometry": {
        "type": "Point",
        "coordinates": [
          139.102461,
          35.986541
        ]
      },
      "properties": {
        "feature_id": "YKW-20260921-001",
        "name": "雨水採水・測定",
        "feature_class": "water_quality_sample",
        "feature_type": "rainwater",
        "has_water_measurement": true,
        "observed_at": "2026-09-21T14:02:13",
        "observed_date": "2026-09-21T00:00:00",
        "address": "埼玉県横瀬町横瀬1926",
        "municipality": "横瀬町",
        "in_yokoze_town": true,
        "access_status": "unknown",
        "elevation_field_m": 225.72,
        "water_temp_field_c": 22.3,
        "conductivity_field_ms_m": 1.193,
        "conductivity_field_us_cm": 11.93,
        "ph_field": 6.3,
        "rph_field": 6.3,
        "ph_difference": 0,
        "remarks": "Area898周辺に降り注いだ雨水",
        "cfg_matched": false,
        "cfg_match_method": null,
        "cfg_match_distance_m": null,
        "cfg_observed_at": null,
        "cfg_latitude": null,
        "cfg_longitude": null,
        "cfg_elevation_m": null,
        "elevation_difference_m": null,
        "nitrate_mg_l": null,
        "nitrate_mv": null,
        "water_temp_cfg_c": null,
        "conductivity_cfg_us_cm": null,
        "ph_cfg": null,
        "ph_cfg_retest": null,
        "orp_mv": null,
        "weather": null,
        "previous_weather": null,
        "cfg_field_id": null,
        "cfg_event_id": null,
        "cfg_device_id": null,
        "cfg_location_label": null,
        "cfg_note": null,
        "qc_flags": "duplicate_coordinates_distinct_samples",
        "source_fieldwork_row": 2,
        "source_cfg_row": null,
        "source_files": "2026.09.21-22_荒川流域圏構想フィールドワーク.xlsx",
        "longitude": 139.102461,
        "latitude": 35.986541
      }
    },
    {
      "type": "Feature",
      "id": "YKW-20260921-002",
      "geometry": {
        "type": "Point",
        "coordinates": [
          139.102461,
          35.986541
        ]
      },
      "properties": {
        "feature_id": "YKW-20260921-002",
        "name": "知知夫瀧坂水神社 御神水測定",
        "feature_class": "water_quality_sample",
        "feature_type": "spring_water",
        "has_water_measurement": true,
        "observed_at": "2026-09-21T14:02:13",
        "observed_date": "2026-09-21T00:00:00",
        "address": "埼玉県横瀬町横瀬1926",
        "municipality": "横瀬町",
        "in_yokoze_town": true,
        "access_status": "unknown",
        "elevation_field_m": 225.72,
        "water_temp_field_c": 16,
        "conductivity_field_ms_m": 19.7,
        "conductivity_field_us_cm": 197,
        "ph_field": 6.7,
        "rph_field": 7.1,
        "ph_difference": 0.4,
        "remarks": "鈴賀さん採水の水",
        "cfg_matched": false,
        "cfg_match_method": null,
        "cfg_match_distance_m": null,
        "cfg_observed_at": null,
        "cfg_latitude": null,
        "cfg_longitude": null,
        "cfg_elevation_m": null,
        "elevation_difference_m": null,
        "nitrate_mg_l": null,
        "nitrate_mv": null,
        "water_temp_cfg_c": null,
        "conductivity_cfg_us_cm": null,
        "ph_cfg": null,
        "ph_cfg_retest": null,
        "orp_mv": null,
        "weather": null,
        "previous_weather": null,
        "cfg_field_id": null,
        "cfg_event_id": null,
        "cfg_device_id": null,
        "cfg_location_label": null,
        "cfg_note": null,
        "qc_flags": "duplicate_coordinates_distinct_samples",
        "source_fieldwork_row": 3,
        "source_cfg_row": null,
        "source_files": "2026.09.21-22_荒川流域圏構想フィールドワーク.xlsx",
        "longitude": 139.102461,
        "latitude": 35.986541
      }
    },
    {
      "type": "Feature",
      "id": "YKW-20260921-003",
      "geometry": {
        "type": "Point",
        "coordinates": [
          139.105341,
          35.988683
        ]
      },
      "properties": {
        "feature_id": "YKW-20260921-003",
        "name": "礫岩露頭",
        "feature_class": "other_observation",
        "feature_type": "geology",
        "has_water_measurement": false,
        "observed_at": "2026-09-21T14:49:35",
        "observed_date": "2026-09-21T00:00:00",
        "address": "埼玉県横瀬町横瀬1902-8",
        "municipality": "横瀬町",
        "in_yokoze_town": true,
        "access_status": "unknown",
        "elevation_field_m": 230.65,
        "water_temp_field_c": null,
        "conductivity_field_ms_m": null,
        "conductivity_field_us_cm": null,
        "ph_field": null,
        "rph_field": null,
        "ph_difference": null,
        "remarks": null,
        "cfg_matched": false,
        "cfg_match_method": null,
        "cfg_match_distance_m": null,
        "cfg_observed_at": null,
        "cfg_latitude": null,
        "cfg_longitude": null,
        "cfg_elevation_m": null,
        "elevation_difference_m": null,
        "nitrate_mg_l": null,
        "nitrate_mv": null,
        "water_temp_cfg_c": null,
        "conductivity_cfg_us_cm": null,
        "ph_cfg": null,
        "ph_cfg_retest": null,
        "orp_mv": null,
        "weather": null,
        "previous_weather": null,
        "cfg_field_id": null,
        "cfg_event_id": null,
        "cfg_device_id": null,
        "cfg_location_label": null,
        "cfg_note": null,
        "qc_flags": "no_water_measurement",
        "source_fieldwork_row": 4,
        "source_cfg_row": null,
        "source_files": "2026.09.21-22_荒川流域圏構想フィールドワーク.xlsx",
        "longitude": 139.105341,
        "latitude": 35.988683
      }
    },
    {
      "type": "Feature",
      "id": "YKW-20260921-004",
      "geometry": {
        "type": "Point",
        "coordinates": [
          139.105161,
          35.988763
        ]
      },
      "properties": {
        "feature_id": "YKW-20260921-004",
        "name": "森側 モミの木",
        "feature_class": "other_observation",
        "feature_type": "vegetation",
        "has_water_measurement": false,
        "observed_at": "2026-09-21T14:53:55",
        "observed_date": "2026-09-21T00:00:00",
        "address": "埼玉県横瀬町横瀬1902-8",
        "municipality": "横瀬町",
        "in_yokoze_town": true,
        "access_status": "unknown",
        "elevation_field_m": 223.25,
        "water_temp_field_c": null,
        "conductivity_field_ms_m": null,
        "conductivity_field_us_cm": null,
        "ph_field": null,
        "rph_field": null,
        "ph_difference": null,
        "remarks": null,
        "cfg_matched": false,
        "cfg_match_method": null,
        "cfg_match_distance_m": null,
        "cfg_observed_at": null,
        "cfg_latitude": null,
        "cfg_longitude": null,
        "cfg_elevation_m": null,
        "elevation_difference_m": null,
        "nitrate_mg_l": null,
        "nitrate_mv": null,
        "water_temp_cfg_c": null,
        "conductivity_cfg_us_cm": null,
        "ph_cfg": null,
        "ph_cfg_retest": null,
        "orp_mv": null,
        "weather": null,
        "previous_weather": null,
        "cfg_field_id": null,
        "cfg_event_id": null,
        "cfg_device_id": null,
        "cfg_location_label": null,
        "cfg_note": null,
        "qc_flags": "no_water_measurement",
        "source_fieldwork_row": 5,
        "source_cfg_row": null,
        "source_files": "2026.09.21-22_荒川流域圏構想フィールドワーク.xlsx",
        "longitude": 139.105161,
        "latitude": 35.988763
      }
    },
    {
      "type": "Feature",
      "id": "YKW-20260921-005",
      "geometry": {
        "type": "Point",
        "coordinates": [
          139.105233,
          35.988827
        ]
      },
      "properties": {
        "feature_id": "YKW-20260921-005",
        "name": "森側 斜面端部の湧水",
        "feature_class": "water_quality_sample",
        "feature_type": "spring_water",
        "has_water_measurement": true,
        "observed_at": "2026-09-21T15:13:18",
        "observed_date": "2026-09-21T00:00:00",
        "address": "埼玉県横瀬町横瀬1865-6",
        "municipality": "横瀬町",
        "in_yokoze_town": true,
        "access_status": "unknown",
        "elevation_field_m": 223.03,
        "water_temp_field_c": 19.4,
        "conductivity_field_ms_m": 21.8,
        "conductivity_field_us_cm": 218,
        "ph_field": 6.9,
        "rph_field": 7.2,
        "ph_difference": 0.3,
        "remarks": "サーモグラフィーカメラで見つけた水たまり",
        "cfg_matched": false,
        "cfg_match_method": null,
        "cfg_match_distance_m": null,
        "cfg_observed_at": null,
        "cfg_latitude": null,
        "cfg_longitude": null,
        "cfg_elevation_m": null,
        "elevation_difference_m": null,
        "nitrate_mg_l": null,
        "nitrate_mv": null,
        "water_temp_cfg_c": null,
        "conductivity_cfg_us_cm": null,
        "ph_cfg": null,
        "ph_cfg_retest": null,
        "orp_mv": null,
        "weather": null,
        "previous_weather": null,
        "cfg_field_id": null,
        "cfg_event_id": null,
        "cfg_device_id": null,
        "cfg_location_label": null,
        "cfg_note": null,
        "qc_flags": null,
        "source_fieldwork_row": 6,
        "source_cfg_row": null,
        "source_files": "2026.09.21-22_荒川流域圏構想フィールドワーク.xlsx",
        "longitude": 139.105233,
        "latitude": 35.988827
      }
    },
    {
      "type": "Feature",
      "id": "YKW-20260922-006",
      "geometry": {
        "type": "Point",
        "coordinates": [
          139.089245,
          35.997766
        ]
      },
      "properties": {
        "feature_id": "YKW-20260922-006",
        "name": "道の駅 ちちぶの水",
        "feature_class": "water_quality_sample",
        "feature_type": "tap_water",
        "has_water_measurement": true,
        "observed_at": "2026-09-22T10:05:29",
        "observed_date": "2026-09-22T00:00:00",
        "address": "埼玉県秩父市大宮4625",
        "municipality": "秩父市",
        "in_yokoze_town": false,
        "access_status": "unknown",
        "elevation_field_m": 230.09,
        "water_temp_field_c": 18.2,
        "conductivity_field_ms_m": 12.02,
        "conductivity_field_us_cm": 120.2,
        "ph_field": 7.3,
        "rph_field": 7.4,
        "ph_difference": 0.1,
        "remarks": "橋立浄水場から引いた水道水",
        "cfg_matched": true,
        "cfg_match_method": "name_time_spatial_reviewed",
        "cfg_match_distance_m": 63.8,
        "cfg_observed_at": "2026-09-22T10:04:26",
        "cfg_latitude": 35.997339,
        "cfg_longitude": 139.088772,
        "cfg_elevation_m": 274.4,
        "elevation_difference_m": 44.3,
        "nitrate_mg_l": 4.762,
        "nitrate_mv": 103,
        "water_temp_cfg_c": 24,
        "conductivity_cfg_us_cm": 129,
        "ph_cfg": 7.77,
        "ph_cfg_retest": null,
        "orp_mv": 258,
        "weather": "晴れ",
        "previous_weather": "雨",
        "cfg_field_id": "Yokoze",
        "cfg_event_id": "20260922",
        "cfg_device_id": "115",
        "cfg_location_label": "ちちぶの水",
        "cfg_note": null,
        "qc_flags": "outside_yokoze_town; cfg_match_distance_gt_50m; elevation_difference_gt_20m",
        "source_fieldwork_row": 7,
        "source_cfg_row": 2,
        "source_files": "2026.09.21-22_荒川流域圏構想フィールドワーク.xlsx; Code for Ground データソン.xlsx",
        "longitude": 139.089245,
        "latitude": 35.997766
      }
    },
    {
      "type": "Feature",
      "id": "YKW-20260922-007",
      "geometry": {
        "type": "Point",
        "coordinates": [
          139.083875,
          35.997807
        ]
      },
      "properties": {
        "feature_id": "YKW-20260922-007",
        "name": "秩父神社 乾の井戸",
        "feature_class": "water_quality_sample",
        "feature_type": "well",
        "has_water_measurement": true,
        "observed_at": "2026-09-22T10:32:01",
        "observed_date": "2026-09-22T00:00:00",
        "address": "埼玉県秩父市番場町1-23",
        "municipality": "秩父市",
        "in_yokoze_town": false,
        "access_status": "unknown",
        "elevation_field_m": 226.59,
        "water_temp_field_c": 22.3,
        "conductivity_field_ms_m": 17.48,
        "conductivity_field_us_cm": 174.8,
        "ph_field": 6.2,
        "rph_field": 7.2,
        "ph_difference": 1,
        "remarks": "境内裏手の柞（ははそのもり）の森にある、決して枯れないとされる浅井戸。手押しポンプ稼働時間が少ないため、水温は参考値。",
        "cfg_matched": true,
        "cfg_match_method": "name_time_spatial_reviewed",
        "cfg_match_distance_m": 90.9,
        "cfg_observed_at": "2026-09-22T10:31:47",
        "cfg_latitude": 35.998611,
        "cfg_longitude": 139.084059,
        "cfg_elevation_m": 268.5,
        "elevation_difference_m": 41.9,
        "nitrate_mg_l": 4.85,
        "nitrate_mv": 103,
        "water_temp_cfg_c": 25.3,
        "conductivity_cfg_us_cm": 189,
        "ph_cfg": 7.11,
        "ph_cfg_retest": null,
        "orp_mv": 270,
        "weather": "晴れ",
        "previous_weather": "雨",
        "cfg_field_id": "Yokoze",
        "cfg_event_id": "20260922",
        "cfg_device_id": "115",
        "cfg_location_label": "秩父神社 乾の井戸",
        "cfg_note": null,
        "qc_flags": "outside_yokoze_town; cfg_match_distance_gt_50m; elevation_difference_gt_20m",
        "source_fieldwork_row": 8,
        "source_cfg_row": 3,
        "source_files": "2026.09.21-22_荒川流域圏構想フィールドワーク.xlsx; Code for Ground データソン.xlsx",
        "longitude": 139.083875,
        "latitude": 35.997807
      }
    },
    {
      "type": "Feature",
      "id": "YKW-20260922-008",
      "geometry": {
        "type": "Point",
        "coordinates": [
          139.088746,
          36.001536
        ]
      },
      "properties": {
        "feature_id": "YKW-20260922-008",
        "name": "妙見七つ井戸 七の井戸（今重の井戸）",
        "feature_class": "water_quality_sample",
        "feature_type": "well",
        "has_water_measurement": true,
        "observed_at": "2026-09-22T10:48:14",
        "observed_date": "2026-09-22T00:00:00",
        "address": "埼玉県秩父市上宮地町17-23",
        "municipality": "秩父市",
        "in_yokoze_town": false,
        "access_status": "unknown",
        "elevation_field_m": 223.23,
        "water_temp_field_c": 20.6,
        "conductivity_field_ms_m": 29.4,
        "conductivity_field_us_cm": 294,
        "ph_field": 6.9,
        "rph_field": 7.3,
        "ph_difference": 0.4,
        "remarks": "妙見菩薩が秩父神社に合祀された際、宮地の妙見宮から秩父神社まで渡っていったとされる七つ井戸（北斗七星になぞらえた）。\nかつては豊富な湧水があり主に「染め糸のすすぎ」などの作業に使われていた。",
        "cfg_matched": true,
        "cfg_match_method": "name_time_spatial",
        "cfg_match_distance_m": 44.7,
        "cfg_observed_at": "2026-09-22T10:56:01",
        "cfg_latitude": 36.001928,
        "cfg_longitude": 139.088857,
        "cfg_elevation_m": 268.2,
        "elevation_difference_m": 45,
        "nitrate_mg_l": 29.778,
        "nitrate_mv": 79,
        "water_temp_cfg_c": 26.4,
        "conductivity_cfg_us_cm": 313,
        "ph_cfg": 7.2,
        "ph_cfg_retest": null,
        "orp_mv": 283,
        "weather": "晴れ",
        "previous_weather": "雨",
        "cfg_field_id": "Yokoze",
        "cfg_event_id": "20260922",
        "cfg_device_id": "115",
        "cfg_location_label": "妙見七の井戸",
        "cfg_note": null,
        "qc_flags": "outside_yokoze_town; elevation_difference_gt_20m",
        "source_fieldwork_row": 9,
        "source_cfg_row": 4,
        "source_files": "2026.09.21-22_荒川流域圏構想フィールドワーク.xlsx; Code for Ground データソン.xlsx",
        "longitude": 139.088746,
        "latitude": 36.001536
      }
    },
    {
      "type": "Feature",
      "id": "YKW-20260922-009",
      "geometry": {
        "type": "Point",
        "coordinates": [
          139.088855,
          36.003302
        ]
      },
      "properties": {
        "feature_id": "YKW-20260922-009",
        "name": "妙見七つ井戸 六の井戸（みざわの井戸）",
        "feature_class": "water_feature",
        "feature_type": "spring_pond",
        "has_water_measurement": false,
        "observed_at": "2026-09-22T11:02:50",
        "observed_date": "2026-09-22T00:00:00",
        "address": "埼玉県秩父市上宮地町15-10",
        "municipality": "秩父市",
        "in_yokoze_town": false,
        "access_status": "private",
        "elevation_field_m": 222.17,
        "water_temp_field_c": null,
        "conductivity_field_ms_m": null,
        "conductivity_field_us_cm": null,
        "ph_field": null,
        "rph_field": null,
        "ph_difference": null,
        "remarks": "個人宅（農家）の敷地内（私有地）にあり、クレソンが自生する湧水池。水量は豊富でトンボの産卵場になっている。",
        "cfg_matched": false,
        "cfg_match_method": null,
        "cfg_match_distance_m": null,
        "cfg_observed_at": null,
        "cfg_latitude": null,
        "cfg_longitude": null,
        "cfg_elevation_m": null,
        "elevation_difference_m": null,
        "nitrate_mg_l": null,
        "nitrate_mv": null,
        "water_temp_cfg_c": null,
        "conductivity_cfg_us_cm": null,
        "ph_cfg": null,
        "ph_cfg_retest": null,
        "orp_mv": null,
        "weather": null,
        "previous_weather": null,
        "cfg_field_id": null,
        "cfg_event_id": null,
        "cfg_device_id": null,
        "cfg_location_label": null,
        "cfg_note": null,
        "qc_flags": "outside_yokoze_town; no_water_measurement",
        "source_fieldwork_row": 10,
        "source_cfg_row": null,
        "source_files": "2026.09.21-22_荒川流域圏構想フィールドワーク.xlsx",
        "longitude": 139.088855,
        "latitude": 36.003302
      }
    },
    {
      "type": "Feature",
      "id": "YKW-20260922-010",
      "geometry": {
        "type": "Point",
        "coordinates": [
          139.089435,
          36.004209
        ]
      },
      "properties": {
        "feature_id": "YKW-20260922-010",
        "name": "湧水池",
        "feature_class": "water_feature",
        "feature_type": "spring_pond",
        "has_water_measurement": false,
        "observed_at": "2026-09-22T11:09:55",
        "observed_date": "2026-09-22T00:00:00",
        "address": "埼玉県秩父市中宮地町3",
        "municipality": "秩父市",
        "in_yokoze_town": false,
        "access_status": "no_entry",
        "elevation_field_m": 221.79,
        "water_temp_field_c": null,
        "conductivity_field_ms_m": null,
        "conductivity_field_us_cm": null,
        "ph_field": null,
        "rph_field": null,
        "ph_difference": null,
        "remarks": "段丘の低崖付近にあり、住宅地の一角にある祠が祀られた湧水池。フェンスで囲まれており立入りできない。",
        "cfg_matched": false,
        "cfg_match_method": null,
        "cfg_match_distance_m": null,
        "cfg_observed_at": null,
        "cfg_latitude": null,
        "cfg_longitude": null,
        "cfg_elevation_m": null,
        "elevation_difference_m": null,
        "nitrate_mg_l": null,
        "nitrate_mv": null,
        "water_temp_cfg_c": null,
        "conductivity_cfg_us_cm": null,
        "ph_cfg": null,
        "ph_cfg_retest": null,
        "orp_mv": null,
        "weather": null,
        "previous_weather": null,
        "cfg_field_id": null,
        "cfg_event_id": null,
        "cfg_device_id": null,
        "cfg_location_label": null,
        "cfg_note": null,
        "qc_flags": "outside_yokoze_town; no_water_measurement",
        "source_fieldwork_row": 11,
        "source_cfg_row": null,
        "source_files": "2026.09.21-22_荒川流域圏構想フィールドワーク.xlsx",
        "longitude": 139.089435,
        "latitude": 36.004209
      }
    },
    {
      "type": "Feature",
      "id": "YKW-20260922-011",
      "geometry": {
        "type": "Point",
        "coordinates": [
          139.089224,
          36.004091
        ]
      },
      "properties": {
        "feature_id": "YKW-20260922-011",
        "name": "湧水の水路",
        "feature_class": "water_quality_sample",
        "feature_type": "spring_channel",
        "has_water_measurement": true,
        "observed_at": "2026-09-22T11:14:51",
        "observed_date": "2026-09-22T00:00:00",
        "address": "埼玉県秩父市上宮地町14-7",
        "municipality": "秩父市",
        "in_yokoze_town": false,
        "access_status": "unknown",
        "elevation_field_m": 221.3,
        "water_temp_field_c": 21.4,
        "conductivity_field_ms_m": 30.2,
        "conductivity_field_us_cm": 302,
        "ph_field": 6.9,
        "rph_field": 7.4,
        "ph_difference": 0.5,
        "remarks": "段丘の低崖付近から湧出する地下水を集水。ザリガニやカワエビ、カワニナなど水生生物が多く観察される。",
        "cfg_matched": true,
        "cfg_match_method": "name_time_spatial",
        "cfg_match_distance_m": 2.9,
        "cfg_observed_at": "2026-09-22T11:13:10",
        "cfg_latitude": 36.004066,
        "cfg_longitude": 139.089214,
        "cfg_elevation_m": 266.5,
        "elevation_difference_m": 45.2,
        "nitrate_mg_l": 29.778,
        "nitrate_mv": 79,
        "water_temp_cfg_c": 27.8,
        "conductivity_cfg_us_cm": 328,
        "ph_cfg": 7.53,
        "ph_cfg_retest": null,
        "orp_mv": 266,
        "weather": "晴れ",
        "previous_weather": "雨",
        "cfg_field_id": "Yokoze",
        "cfg_event_id": "20260922",
        "cfg_device_id": "115",
        "cfg_location_label": "サワガニの水路",
        "cfg_note": null,
        "qc_flags": "outside_yokoze_town; elevation_difference_gt_20m",
        "source_fieldwork_row": 12,
        "source_cfg_row": 5,
        "source_files": "2026.09.21-22_荒川流域圏構想フィールドワーク.xlsx; Code for Ground データソン.xlsx",
        "longitude": 139.089224,
        "latitude": 36.004091
      }
    },
    {
      "type": "Feature",
      "id": "YKW-20260922-012",
      "geometry": {
        "type": "Point",
        "coordinates": [
          139.090301,
          36.005537
        ]
      },
      "properties": {
        "feature_id": "YKW-20260922-012",
        "name": "妙見七つ井戸 五の井戸（あらゐの井戸）",
        "feature_class": "water_quality_sample",
        "feature_type": "well",
        "has_water_measurement": true,
        "observed_at": "2026-09-22T11:24:59",
        "observed_date": "2026-09-22T00:00:00",
        "address": "埼玉県秩父市中宮地町9-2",
        "municipality": "秩父市",
        "in_yokoze_town": false,
        "access_status": "unknown",
        "elevation_field_m": 221.29,
        "water_temp_field_c": 20.7,
        "conductivity_field_ms_m": 29.5,
        "conductivity_field_us_cm": 295,
        "ph_field": 6.8,
        "rph_field": 7.4,
        "ph_difference": 0.6,
        "remarks": "現在でも湧出量が豊富で、野菜の洗い場などとして利用される。マス内には鯉が遊泳している。",
        "cfg_matched": true,
        "cfg_match_method": "name_time_spatial",
        "cfg_match_distance_m": 11.2,
        "cfg_observed_at": "2026-09-22T11:23:43",
        "cfg_latitude": 36.005459,
        "cfg_longitude": 139.090223,
        "cfg_elevation_m": 265.6,
        "elevation_difference_m": 44.3,
        "nitrate_mg_l": 25.598,
        "nitrate_mv": 81,
        "water_temp_cfg_c": 27.8,
        "conductivity_cfg_us_cm": 318,
        "ph_cfg": 7.34,
        "ph_cfg_retest": null,
        "orp_mv": 272,
        "weather": "晴れ",
        "previous_weather": "雨",
        "cfg_field_id": "Yokoze",
        "cfg_event_id": "20260922",
        "cfg_device_id": "115",
        "cfg_location_label": "五の井戸",
        "cfg_note": null,
        "qc_flags": "outside_yokoze_town; elevation_difference_gt_20m",
        "source_fieldwork_row": 13,
        "source_cfg_row": 6,
        "source_files": "2026.09.21-22_荒川流域圏構想フィールドワーク.xlsx; Code for Ground データソン.xlsx",
        "longitude": 139.090301,
        "latitude": 36.005537
      }
    },
    {
      "type": "Feature",
      "id": "YKW-20260922-013",
      "geometry": {
        "type": "Point",
        "coordinates": [
          139.090465,
          36.005796
        ]
      },
      "properties": {
        "feature_id": "YKW-20260922-013",
        "name": "湧水",
        "feature_class": "water_feature",
        "feature_type": "spring_channel",
        "has_water_measurement": false,
        "observed_at": "2026-09-22T11:28:18",
        "observed_date": "2026-09-22T00:00:00",
        "address": "埼玉県秩父市中宮地町9-4",
        "municipality": "秩父市",
        "in_yokoze_town": false,
        "access_status": "unknown",
        "elevation_field_m": 221.25,
        "water_temp_field_c": null,
        "conductivity_field_ms_m": null,
        "conductivity_field_us_cm": null,
        "ph_field": null,
        "rph_field": null,
        "ph_difference": null,
        "remarks": "住宅地の一角から湧出する水路。",
        "cfg_matched": false,
        "cfg_match_method": null,
        "cfg_match_distance_m": null,
        "cfg_observed_at": null,
        "cfg_latitude": null,
        "cfg_longitude": null,
        "cfg_elevation_m": null,
        "elevation_difference_m": null,
        "nitrate_mg_l": null,
        "nitrate_mv": null,
        "water_temp_cfg_c": null,
        "conductivity_cfg_us_cm": null,
        "ph_cfg": null,
        "ph_cfg_retest": null,
        "orp_mv": null,
        "weather": null,
        "previous_weather": null,
        "cfg_field_id": null,
        "cfg_event_id": null,
        "cfg_device_id": null,
        "cfg_location_label": null,
        "cfg_note": null,
        "qc_flags": "outside_yokoze_town; no_water_measurement",
        "source_fieldwork_row": 14,
        "source_cfg_row": null,
        "source_files": "2026.09.21-22_荒川流域圏構想フィールドワーク.xlsx",
        "longitude": 139.090465,
        "latitude": 36.005796
      }
    },
    {
      "type": "Feature",
      "id": "YKW-20260922-014",
      "geometry": {
        "type": "Point",
        "coordinates": [
          139.09061,
          36.006153
        ]
      },
      "properties": {
        "feature_id": "YKW-20260922-014",
        "name": "亀の祠",
        "feature_class": "other_observation",
        "feature_type": "cultural_feature",
        "has_water_measurement": false,
        "observed_at": "2026-09-22T11:29:24",
        "observed_date": "2026-09-22T00:00:00",
        "address": "埼玉県秩父市中宮地町9-7",
        "municipality": "秩父市",
        "in_yokoze_town": false,
        "access_status": "unknown",
        "elevation_field_m": 221.85,
        "water_temp_field_c": null,
        "conductivity_field_ms_m": null,
        "conductivity_field_us_cm": null,
        "ph_field": null,
        "rph_field": null,
        "ph_difference": null,
        "remarks": "段丘の低崖付近にあり、中宮地町の住宅軒先に祀られた亀の祠",
        "cfg_matched": false,
        "cfg_match_method": null,
        "cfg_match_distance_m": null,
        "cfg_observed_at": null,
        "cfg_latitude": null,
        "cfg_longitude": null,
        "cfg_elevation_m": null,
        "elevation_difference_m": null,
        "nitrate_mg_l": null,
        "nitrate_mv": null,
        "water_temp_cfg_c": null,
        "conductivity_cfg_us_cm": null,
        "ph_cfg": null,
        "ph_cfg_retest": null,
        "orp_mv": null,
        "weather": null,
        "previous_weather": null,
        "cfg_field_id": null,
        "cfg_event_id": null,
        "cfg_device_id": null,
        "cfg_location_label": null,
        "cfg_note": null,
        "qc_flags": "outside_yokoze_town; no_water_measurement",
        "source_fieldwork_row": 15,
        "source_cfg_row": null,
        "source_files": "2026.09.21-22_荒川流域圏構想フィールドワーク.xlsx",
        "longitude": 139.09061,
        "latitude": 36.006153
      }
    },
    {
      "type": "Feature",
      "id": "YKW-20260922-015",
      "geometry": {
        "type": "Point",
        "coordinates": [
          139.090911,
          36.00657
        ]
      },
      "properties": {
        "feature_id": "YKW-20260922-015",
        "name": "妙見七つ井戸 四の井戸（下堀の井戸）",
        "feature_class": "water_quality_sample",
        "feature_type": "well",
        "has_water_measurement": true,
        "observed_at": "2026-09-22T11:32:24",
        "observed_date": "2026-09-22T00:00:00",
        "address": "埼玉県秩父市中宮地町20-2",
        "municipality": "秩父市",
        "in_yokoze_town": false,
        "access_status": "unknown",
        "elevation_field_m": 220.18,
        "water_temp_field_c": 20.6,
        "conductivity_field_ms_m": 30.8,
        "conductivity_field_us_cm": 308,
        "ph_field": 6.7,
        "rph_field": 7.3,
        "ph_difference": 0.6,
        "remarks": "段丘の低崖端部に位置。かつてはけやきの根元から湧出し、七ツ井戸で最も湧出量が豊富であったが、現在は当時の1/3程度。枯渇経験あり。",
        "cfg_matched": true,
        "cfg_match_method": "name_time_spatial",
        "cfg_match_distance_m": 4.9,
        "cfg_observed_at": "2026-09-22T11:32:24",
        "cfg_latitude": 36.006613,
        "cfg_longitude": 139.090901,
        "cfg_elevation_m": 266.6,
        "elevation_difference_m": 46.4,
        "nitrate_mg_l": 79.579,
        "nitrate_mv": 66,
        "water_temp_cfg_c": 29.7,
        "conductivity_cfg_us_cm": 329,
        "ph_cfg": 7.38,
        "ph_cfg_retest": null,
        "orp_mv": 284,
        "weather": "晴れ",
        "previous_weather": "雨",
        "cfg_field_id": "Yokoze",
        "cfg_event_id": "20260922",
        "cfg_device_id": "115",
        "cfg_location_label": "四の井戸",
        "cfg_note": null,
        "qc_flags": "outside_yokoze_town; elevation_difference_gt_20m",
        "source_fieldwork_row": 16,
        "source_cfg_row": 7,
        "source_files": "2026.09.21-22_荒川流域圏構想フィールドワーク.xlsx; Code for Ground データソン.xlsx",
        "longitude": 139.090911,
        "latitude": 36.00657
      }
    },
    {
      "type": "Feature",
      "id": "YKW-20260922-016",
      "geometry": {
        "type": "Point",
        "coordinates": [
          139.091416,
          36.007535
        ]
      },
      "properties": {
        "feature_id": "YKW-20260922-016",
        "name": "妙見七つ井戸 三の井戸（子育ての井戸）",
        "feature_class": "water_quality_sample",
        "feature_type": "well",
        "has_water_measurement": true,
        "observed_at": "2026-09-22T13:44:03",
        "observed_date": "2026-09-22T00:00:00",
        "address": "埼玉県秩父市中宮地町25-34",
        "municipality": "秩父市",
        "in_yokoze_town": false,
        "access_status": "unknown",
        "elevation_field_m": 219.93,
        "water_temp_field_c": 21.3,
        "conductivity_field_ms_m": 28.8,
        "conductivity_field_us_cm": 288,
        "ph_field": 6.8,
        "rph_field": 7.3,
        "ph_difference": 0.5,
        "remarks": "段丘の低崖付近にあり、この水でご飯を炊くと乳の出が良くなるとの言い伝えがある。湧出量は減少しているそう。",
        "cfg_matched": true,
        "cfg_match_method": "name_time_spatial",
        "cfg_match_distance_m": 1.1,
        "cfg_observed_at": "2026-09-22T13:43:33",
        "cfg_latitude": 36.007545,
        "cfg_longitude": 139.091417,
        "cfg_elevation_m": 263.2,
        "elevation_difference_m": 43.3,
        "nitrate_mg_l": 25.598,
        "nitrate_mv": 81,
        "water_temp_cfg_c": 27,
        "conductivity_cfg_us_cm": 306,
        "ph_cfg": 7.43,
        "ph_cfg_retest": null,
        "orp_mv": 261,
        "weather": "晴れ",
        "previous_weather": "雨",
        "cfg_field_id": "Yokoze",
        "cfg_event_id": "20260922",
        "cfg_device_id": "115",
        "cfg_location_label": "三の井戸",
        "cfg_note": null,
        "qc_flags": "outside_yokoze_town; elevation_difference_gt_20m",
        "source_fieldwork_row": 17,
        "source_cfg_row": 8,
        "source_files": "2026.09.21-22_荒川流域圏構想フィールドワーク.xlsx; Code for Ground データソン.xlsx",
        "longitude": 139.091416,
        "latitude": 36.007535
      }
    },
    {
      "type": "Feature",
      "id": "YKW-20260922-017",
      "geometry": {
        "type": "Point",
        "coordinates": [
          139.09259,
          36.009
        ]
      },
      "properties": {
        "feature_id": "YKW-20260922-017",
        "name": "妙見七つ井戸 二の井戸（井之上の井戸）",
        "feature_class": "water_quality_sample",
        "feature_type": "well",
        "has_water_measurement": true,
        "observed_at": "2026-09-22T14:01:10",
        "observed_date": "2026-09-22T00:00:00",
        "address": "埼玉県秩父市中宮地町34-8",
        "municipality": "秩父市",
        "in_yokoze_town": false,
        "access_status": "unknown",
        "elevation_field_m": 219.53,
        "water_temp_field_c": 20.6,
        "conductivity_field_ms_m": 9.21,
        "conductivity_field_us_cm": 92.1,
        "ph_field": 5.9,
        "rph_field": 7.1,
        "ph_difference": 1.2,
        "remarks": "段丘の低崖端部に位置。かつては水田や畑での農作業に利用。元々は石垣下端から湧出してたが、現在の姿は当時の形を復元したもの。",
        "cfg_matched": true,
        "cfg_match_method": "name_time_spatial",
        "cfg_match_distance_m": 29.3,
        "cfg_observed_at": "2026-09-22T13:59:26",
        "cfg_latitude": 36.008978,
        "cfg_longitude": 139.092265,
        "cfg_elevation_m": 264.3,
        "elevation_difference_m": 44.8,
        "nitrate_mg_l": 2.111,
        "nitrate_mv": 114,
        "water_temp_cfg_c": 27.8,
        "conductivity_cfg_us_cm": 95,
        "ph_cfg": 6.86,
        "ph_cfg_retest": null,
        "orp_mv": 266,
        "weather": "晴れ",
        "previous_weather": "雨",
        "cfg_field_id": "Yokoze",
        "cfg_event_id": "20260922",
        "cfg_device_id": "115",
        "cfg_location_label": "二の井戸",
        "cfg_note": null,
        "qc_flags": "outside_yokoze_town; elevation_difference_gt_20m",
        "source_fieldwork_row": 18,
        "source_cfg_row": 9,
        "source_files": "2026.09.21-22_荒川流域圏構想フィールドワーク.xlsx; Code for Ground データソン.xlsx",
        "longitude": 139.09259,
        "latitude": 36.009
      }
    },
    {
      "type": "Feature",
      "id": "YKW-20260922-018",
      "geometry": {
        "type": "Point",
        "coordinates": [
          139.080127,
          35.99448
        ]
      },
      "properties": {
        "feature_id": "YKW-20260922-018",
        "name": "井戸",
        "feature_class": "water_feature",
        "feature_type": "well",
        "has_water_measurement": false,
        "observed_at": "2026-09-22T14:28:38",
        "observed_date": "2026-09-22T00:00:00",
        "address": "埼玉県秩父市中町16-3",
        "municipality": "秩父市",
        "in_yokoze_town": false,
        "access_status": "unknown",
        "elevation_field_m": 225.67,
        "water_temp_field_c": null,
        "conductivity_field_ms_m": null,
        "conductivity_field_us_cm": null,
        "ph_field": null,
        "rph_field": null,
        "ph_difference": null,
        "remarks": null,
        "cfg_matched": false,
        "cfg_match_method": null,
        "cfg_match_distance_m": null,
        "cfg_observed_at": null,
        "cfg_latitude": null,
        "cfg_longitude": null,
        "cfg_elevation_m": null,
        "elevation_difference_m": null,
        "nitrate_mg_l": null,
        "nitrate_mv": null,
        "water_temp_cfg_c": null,
        "conductivity_cfg_us_cm": null,
        "ph_cfg": null,
        "ph_cfg_retest": null,
        "orp_mv": null,
        "weather": null,
        "previous_weather": null,
        "cfg_field_id": null,
        "cfg_event_id": null,
        "cfg_device_id": null,
        "cfg_location_label": null,
        "cfg_note": null,
        "qc_flags": "outside_yokoze_town; no_water_measurement",
        "source_fieldwork_row": 19,
        "source_cfg_row": null,
        "source_files": "2026.09.21-22_荒川流域圏構想フィールドワーク.xlsx",
        "longitude": 139.080127,
        "latitude": 35.99448
      }
    },
    {
      "type": "Feature",
      "id": "YKW-20260922-019",
      "geometry": {
        "type": "Point",
        "coordinates": [
          139.080357,
          35.994571
        ]
      },
      "properties": {
        "feature_id": "YKW-20260922-019",
        "name": "秩父今宮神社 清龍の滝",
        "feature_class": "water_quality_sample",
        "feature_type": "spring_water",
        "has_water_measurement": true,
        "observed_at": "2026-09-22T14:31:08",
        "observed_date": "2026-09-22T00:00:00",
        "address": "埼玉県秩父市中町16-2",
        "municipality": "秩父市",
        "in_yokoze_town": false,
        "access_status": "unknown",
        "elevation_field_m": 226.98,
        "water_temp_field_c": 20.5,
        "conductivity_field_ms_m": 26.5,
        "conductivity_field_us_cm": 265,
        "ph_field": 6.8,
        "rph_field": 7.5,
        "ph_difference": 0.7,
        "remarks": "段丘の低崖付近にあり、武甲山の伏流水が湧き出る名水で、環境省の「平成の名水百選」に選定された。",
        "cfg_matched": true,
        "cfg_match_method": "name_time_manual_override",
        "cfg_match_distance_m": 31.4,
        "cfg_observed_at": "2026-09-22T14:34:28",
        "cfg_latitude": 35.994662,
        "cfg_longitude": 139.080027,
        "cfg_elevation_m": 268.9,
        "elevation_difference_m": 41.9,
        "nitrate_mg_l": 58.809,
        "nitrate_mv": 70,
        "water_temp_cfg_c": 28,
        "conductivity_cfg_us_cm": 275,
        "ph_cfg": 7.2,
        "ph_cfg_retest": 7.05,
        "orp_mv": 251,
        "weather": "晴れ",
        "previous_weather": "雨",
        "cfg_field_id": "Yokoze",
        "cfg_event_id": "20260922",
        "cfg_device_id": "115",
        "cfg_location_label": "今宮神社",
        "cfg_note": "ph再測定7.05",
        "qc_flags": "outside_yokoze_town; elevation_difference_gt_20m; cfg_nearest_point_override_reviewed",
        "source_fieldwork_row": 20,
        "source_cfg_row": 10,
        "source_files": "2026.09.21-22_荒川流域圏構想フィールドワーク.xlsx; Code for Ground データソン.xlsx",
        "longitude": 139.080357,
        "latitude": 35.994571
      }
    },
    {
      "type": "Feature",
      "id": "YKW-20260922-020",
      "geometry": {
        "type": "Point",
        "coordinates": [
          139.071677,
          35.987823
        ]
      },
      "properties": {
        "feature_id": "YKW-20260922-020",
        "name": "知知夫瀧坂水神社 御神水",
        "feature_class": "water_quality_sample",
        "feature_type": "spring_water",
        "has_water_measurement": true,
        "observed_at": "2026-09-22T15:11:01",
        "observed_date": "2026-09-22T00:00:00",
        "address": "埼玉県秩父市井戸尻橋",
        "municipality": "秩父市",
        "in_yokoze_town": false,
        "access_status": "unknown",
        "elevation_field_m": 211.78,
        "water_temp_field_c": 16.1,
        "conductivity_field_ms_m": 21.4,
        "conductivity_field_us_cm": 214,
        "ph_field": 6.3,
        "rph_field": 7.3,
        "ph_difference": 1,
        "remarks": "押堀川に架かる井戸尻橋の水道水源施設から200m程上流の左岸斜面から豊富に湧出する。武甲山の伏流水と伝えられており、水場には、 小さな祠がある。",
        "cfg_matched": true,
        "cfg_match_method": "time_spatial_alias_reviewed",
        "cfg_match_distance_m": 27.9,
        "cfg_observed_at": "2026-09-22T15:12:39",
        "cfg_latitude": 35.987659,
        "cfg_longitude": 139.071443,
        "cfg_elevation_m": 255.7,
        "elevation_difference_m": 43.9,
        "nitrate_mg_l": 63.428,
        "nitrate_mv": 69,
        "water_temp_cfg_c": 27,
        "conductivity_cfg_us_cm": 231,
        "ph_cfg": 7.23,
        "ph_cfg_retest": 7.03,
        "orp_mv": 240,
        "weather": "晴れ",
        "previous_weather": "雨",
        "cfg_field_id": "Yokoze",
        "cfg_event_id": "20260922",
        "cfg_device_id": "115",
        "cfg_location_label": "金仙寺湧水",
        "cfg_note": "再測定7.03",
        "qc_flags": "outside_yokoze_town; elevation_difference_gt_20m; cfg_name_alias_reviewed",
        "source_fieldwork_row": 21,
        "source_cfg_row": 11,
        "source_files": "2026.09.21-22_荒川流域圏構想フィールドワーク.xlsx; Code for Ground データソン.xlsx",
        "longitude": 139.071677,
        "latitude": 35.987823
      }
    }
  ]
}
